{"fetched_at":"2026-05-03T06:27:58Z","count":17151,"tles":[{"name":"KUIPER-00507","line1":"1 68887U 26095Z   26122.41670139  .00070730  00000+0  18285-2 0  9995","line2":"2 68887  51.8823 103.6527 0001070  57.1719 110.4955 15.38454967  1309","category":"Other"}]}