{
  "norad_id": 68887,
  "name": "KUIPER-00507",
  "history": [
    {
      "epoch": "2026-05-02T10:00:03.000096Z",
      "apogee_km": 451.40818673781814,
      "perigee_km": 449.9468204340501,
      "latitude_deg": 9.647506502426479,
      "longitude_deg": -94.31669184155315,
      "height_km": 450.95862464670296,
      "semi_major_axis_km": 6828.814503585933,
      "eccentricity": 0.000107,
      "inclination_deg": 51.8823,
      "raan_deg": 103.6527,
      "arg_perigee_deg": 57.1719,
      "mean_anomaly_deg": 110.4955,
      "mean_motion_rev_day": 15.38454967
    }
  ]
}